ARKTIKA-M 1             
1 47719U 21016A   24177.22731992  .00000178  00000+0  00000+0 0  9998
2 47719  63.1394 150.8550 6944166 268.6828  17.9211  2.00608368 24309
STARLINK-2342           
1 47883U 21021Z   24179.15772155 -.00000487  00000+0 -13795-4 0  9991
2 47883  53.0526 182.2950 0000932  85.4491 274.6604 15.06400310182117
GRUS-1B                 
1 47934U 21022C   24179.15550144  .00001867  00000+0  16943-3 0  9999
2 47934  97.6256  71.9349 0016918 215.7278 144.2813 14.96385247178103
2021-022F               
1 47937U 21022F   24179.18564454  .00008079  00000+0  41879-3 0  9992
2 47937  97.4602  74.7382 0015581 106.6225 253.6720 15.16327801179964
CANYVAL-C (PUMBAA)      
1 47938U 21022G   24179.14883733  .00023348  00000+0  89208-3 0  9997
2 47938  97.4556  77.3992 0016048 102.0382 258.2656 15.26501776180161
2021-022H               
1 47939U 21022H   24179.16263019  .00047194  00000+0  12570-2 0  9991
2 47939  97.4625  83.3539 0012818  77.1028 283.1648 15.37956128180506
WILDTRACKCUBE-SIMBA     
1 47941U 21022K   24179.16872096  .00015766  00000+0  69541-3 0  9996
2 47941  97.4592  75.8482 0017581 107.9149 252.4005 15.21725888179989
HIBER-3                 
1 47942U 21022L   24179.18329904  .00034253  00000+0  10922-2 0  9994
2 47942  97.4557  79.8928 0014590  93.6298 266.6612 15.32342825180287
2021-022M               
1 47943U 21022M   24179.21356171  .00047102  00000+0  12589-2 0  9993
2 47943  97.4614  83.5231 0012432  77.1394 283.1239 15.37854665180383
ELSA-D                  
1 47944U 21022N   24178.27475773  .00018338  00000+0  69991-3 0  9998
2 47944  97.4611  78.2173 0015013  93.6148 266.6808 15.26603862180090
UNISAT-7                
1 47945U 21022P   24178.59568381  .00009622  00000+0  47987-3 0  9999
2 47945  97.4578  74.2525 0016345 106.1511 254.1523 15.17621845179739
2021-022Q               
1 47946U 21022Q   24179.19704699  .00018687  00000+0  76650-3 0  9991
2 47946  97.4597  77.9659 0015290  92.3048 267.9940 15.24186637180154
NANOSATC-BR2            
1 47950U 21022U   24179.20136169  .00039307  00000+0  12015-2 0  9995
2 47950  97.4546  79.9927 0014785  94.6337 265.6594 15.33657032180294
CUBESX-SIRIUS-HSE       
1 47951U 21022V   24179.20772053  .00023749  00000+0  91913-3 0  9992
2 47951  97.4588  77.5480 0016544 102.1424 258.1669 15.26063754180100
CUBESX-HSE              
1 47952U 21022W   24179.09480638  .00020175  00000+0  77901-3 0  9996
2 47952  97.4588  77.5282 0016546 101.8942 258.4153 15.26173967180091
2021-022X               
1 47953U 21022X   24179.10447337  .00012450  00000+0  58196-3 0  9990
2 47953  97.4564  74.4451 0017773 111.8903 248.4224 15.19783374179649
KSU-CUBESAT             
1 47954U 21022Y   24179.19458836  .00028530  00000+0  10026-2 0  9991
2 47954  97.4598  78.9939 0015551  97.5469 262.7539 15.29223144179919
CHALLENGE ONE           
1 47956U 21022AA  24178.50803048  .00024391  00000+0  91227-3 0  9990
2 47956  97.4595  77.1965 0016657 104.1357 256.1734 15.27189369179807
2021-022AC              
1 47958U 21022AC  24179.17941123  .00013924  00000+0  63620-3 0  9999
2 47958  97.4544  74.6544 0017834 110.7001 249.6147 15.20539468178755
GRBALPHA                
1 47959U 21022AD  24179.18962781  .00022981  00000+0  88389-3 0  9996
2 47959  97.4591  77.7749 0016412 101.7873 258.5207 15.26279264178934
ORBICRAFT-ZORKY         
1 47960U 21022AE  24179.17043653  .00025273  00000+0  91509-3 0  9990
2 47960  97.4634  79.0708 0015645  99.3987 260.9022 15.28267022179685
3B5GSAT (SATELIOT 1)    
1 47961U 21022AF  24178.66733351  .00308203  00000+0  19419-2 0  9991
2 47961  97.4599  91.0493 0012691  92.4236 267.8482 15.75703559179712
STECCO                  
1 47962U 21022AG  24179.16223486  .00193876  00000+0  20902-2 0  9998
2 47962  97.4564  89.2788 0009611  89.0210 271.2150 15.62994613179689
SMOG-1                  
1 47964U 21022AJ  24178.97977544  .00304560  00000+0  22218-2 0  9995
2 47964  97.4570  91.1006 0010110  98.2502 261.9908 15.72322728179775
GLOBAL-9                
1 47971U 21023G   24178.04201791  .00026167  00000+0  64301-3 0  9990
2 47971  44.9909 303.8196 0005194 334.2619  25.8010 15.40234675183760
BCCSAT-1                
1 48041U 21022AK  24178.29206010  .00088816  00000+0  15366-2 0  9999
2 48041  97.4603  85.7519 0009918  80.9575 279.2798 15.50579422179342
BEESAT-8                
1 48085U 21022AP  24177.96757664  .00028245  00000+0  87943-3 0  9997
2 48085  97.4763  80.1387 0014674  94.9814 265.3104 15.33142749179228
2021-033E               
1 48252U 21033E   24179.18928443  .00042733  00000+0  74580-3 0  9997
2 48252  97.2622 253.6384 0008049 131.0215 229.1734 15.50545761176805
AII-BRAVO               
1 48270U 21034C   24179.13442557  .00005656  00000+0  55151-3 0  9996
2 48270  97.6550 240.2837 0004883 132.3243 227.8391 14.92831174171755
TYVAK-182A              
1 48271U 21034D   24179.14407805  .00005778  00000+0  54595-3 0  9991
2 48271  97.6536 241.3967 0002542 150.7710 209.3653 14.94078747171824
CSS (TIANHE)            
1 48274U 21035A   24176.00600260  .00037052  00000+0  40668-3 0  9993
2 48274  41.4689  41.5341 0005055 269.9303  90.0957 15.62463306180166
TYVAK-0130              
1 48606U 21041BF  24178.93980447  .00010689  00000+0  69110-3 0  9991
2 48606  53.0316  89.4438 0013640 104.5511 255.6993 15.08648271170864
HAIYANG-2D              
1 48621U 21043A   24179.16408406  .00000017  00000+0  89641-4 0  9992
2 48621  65.9985 297.3078 0011509 273.9241  86.0512 13.83373999156992
2021-050D               
1 48843U 21050D   24179.19394312  .00010133  00000+0  43277-3 0  9993
2 48843  97.4016 257.1448 0010871 267.5591  92.4401 15.23019369169330
BRIK-II                 
1 48876U 21058F   24179.08030763  .00023842  00000+0  67290-3 0  9994
2 48876  60.6730  74.4728 0026939  47.1746 313.1605 15.36012986166572
TYVAK-0173              
1 48892U 21059P   24178.22311526  .00001674  00000+0  24098-3 0  9995
2 48892  96.0084  65.8655 0008758 317.6286  42.4252 14.77150746161634
TUBIN                   
1 48900U 21059X   24179.19178513  .00017207  00000+0  58464-3 0  9992
2 48900  97.6476 324.1201 0007314  59.3176 300.8784 15.30521041166455
MANDRAKE 2 ABLE         
1 48907U 21059AE  24178.95242784  .00011220  00000+0  44568-3 0  9993
2 48907  97.6493 321.9643 0009232  65.8144 294.4058 15.25461758166290
MANDRAKE 2 BAKER        
1 48908U 21059AF  24178.93413792  .00011197  00000+0  43386-3 0  9991
2 48908  97.6508 322.4553 0008370  56.0142 304.1890 15.26300452166316
PACE-1                  
1 48909U 21059AG  24178.38757575  .00011765  00000+0  43855-3 0  9993
2 48909  97.6413 321.2967 0008470  54.5160 305.6868 15.27568888166278
YAM-2                   
1 48911U 21059AJ  24178.94809521  .00020825  00000+0  64425-3 0  9990
2 48911  97.6492 326.3059 0007364  48.0694 312.1174 15.33494771166557
ION SCV-003             
1 48912U 21059AK  24178.93349329  .00042092  00000+0  84043-3 0  9993
2 48912  97.6177 328.8950 0005010  36.6382 323.5209 15.46705397166916
YAM-3                   
1 48915U 21059AN  24178.93757030  .00010085  00000+0  40052-3 0  9997
2 48915  97.6468 322.0501 0009545  50.9168 309.2917 15.25494809166319
LEMUR-2-ANNABANANA      
1 48923U 21059AW  24178.98669428  .00437917  85992-4  80374-3 0  9990
2 48923  97.5583 347.9476 0007267 236.6594 123.3989 16.01257327168130
FARADAY_PHOENIX         
1 48924U 21059AX  24178.38636075  .00011262  00000+0  42219-3 0  9996
2 48924  97.6499 323.9717 0014288  47.8224 312.4225 15.27333157166352
PAINANI-2               
1 48928U 21059BB  24178.98430676  .00058085  00000+0  98910-3 0  9998
2 48928  97.6411 333.6650 0005150  19.5960 340.5488 15.51192663167036
SHERPA-LTE1             
1 48941U 21059BQ  24179.01688530  .00763839  33830-3  70562-3 0  9996
2 48941  97.6058   2.7491 0005423 236.8832 123.1932 16.12385611168978
QMR-KWT                 
1 48943U 21059BS  24178.94063905  .00112138  00000+0  12335-2 0  9994
2 48943  97.6299 335.1348 0001250 270.1629  89.9485 15.62792530167179
DEMO8 (TENZING)         
1 48951U 21059CA  24178.40177057  .00009217  00000+0  35476-3 0  9993
2 48951  97.6548 324.0064 0013609  58.1493 302.1067 15.26525649166340
ASTROCAST-0201          
1 48954U 21059CD  24177.97625220  .00003707  00000+0  12950-3 0  9997
2 48954  97.6333 324.3031 0011197  59.4009 300.8334 15.30186880166403
ASTROCAST-0203          
1 48955U 21059CE  24178.39147412  .00011799  00000+0  40480-3 0  9996
2 48955  97.6321 324.2804 0011989  50.6161 309.6139 15.30255624166468
ASTROCAST-0205          
1 48960U 21059CK  24178.93592492  .00015570  00000+0  53283-3 0  9990
2 48960  97.6324 325.1650 0010697  28.5949 331.5876 15.30282525166551
NAPA-2                  
1 48963U 21059CN  24179.15835190  .00012132  00000+0  46202-3 0  9997
2 48963  97.6438 321.3793 0010601  51.4111 308.8075 15.26832707166306
W-CUBE                  
1 48965U 21059CQ  24178.94480225  .00019710  00000+0  64917-3 0  9992
2 48965  97.6467 324.1523 0008507  43.0468 317.1436 15.31488884166422
NEPT-1                  
1 48966U 21059CR  24179.17898584  .00201150  00000+0  16139-2 0  9993
2 48966  97.6243 335.6618 0002324 297.0079  63.0945 15.70391823167317
JILIN-1 GAOFEN 3D01     
1 49004U 21061B   24179.18282672  .00022421  00000+0  77810-3 0  9992
2 49004  97.3960 243.8901 0010461 109.7719 250.4650 15.29744419165141
JILIN-1 GAOFEN 3D03     
1 49006U 21061D   24179.18529875  .00019052  00000+0  74916-3 0  9993
2 49006  97.3939 240.9279 0011600 152.9172 207.2674 15.25644180164958
XINGSHIDAI 10           
1 49007U 21061E   24179.17977525  .00018687  00000+0  73697-3 0  9990
2 49007  97.3946 240.8627 0012874 143.0654 217.1473 15.25535243164948
FENGYUN 3E              
1 49008U 21062A   24179.21379642  .00000032  00000+0  35957-4 0  9996
2 49008  98.7317 180.3579 0002061  38.9415 321.1909 14.19760628154414
